GLOBALSTAR M024         
1 25883U 99043A   24170.87329619 -.00000087  00000+0 -77240-3 0  9999
2 25883  51.9997 120.3775 0001259 246.9707 127.4742 11.10156306 74513
GLOBALSTAR M027         
1 25884U 99043B   24170.72617113 -.00000066  00000+0 -71915-4 0  9994
2 25884  52.0170 188.3966 0021121 125.1698 235.1077 11.04368797101085
GLOBALSTAR M054         
1 25885U 99043C   24171.07308171 -.00000055  00000+0  42056-3 0  9995
2 25885  52.0164  15.8587 0004172 283.5861 246.1555 11.39203572 77992
GLOBALSTAR M053         
1 25886U 99043D   24170.84241882 -.00000067  00000+0  54268-4 0  9997
2 25886  52.0000 303.3495 0003931 176.6607 345.0393 11.27655846 78450
GLOBALSTAR M058         
1 25907U 99049A   24170.90993726 -.00000085  00000+0 -11882-4 0  9991
2 25907  51.9965 359.2051 0001590 310.4833  49.5863 11.93182392498175
GLOBALSTAR M050         
1 25908U 99049B   24170.87541097 -.00000157  00000+0 -78113-3 0  9997
2 25908  52.0010  34.1158 0009715  31.4748 342.3422 12.07435131104300
